OBJECT_NAME,OBJECT_ID,EPOCH,MEAN_MOTION,ECCENTRICITY,INCLINATION,RA_OF_ASC_NODE,ARG_OF_PERICENTER,MEAN_ANOMALY,EPHEMERIS_TYPE,CLASSIFICATION_TYPE,NORAD_CAT_ID,ELEMENT_SET_NO,REV_AT_EPOCH,BSTAR,MEAN_MOTION_DOT,MEAN_MOTION_DDOT
SHIJIAN-17 (SJ-17),2016-065A,2026-07-11T19:38:20.191200,0.99864156,.0001834,5.8126,72.3058,47.0593,304.1727,0,U,41838,999,3544,0,.91E-6,0
GOES 16,2016-071A,2026-07-12T03:09:18.296064,1.00270889,.0000521,0.3957,85.5065,98.0134,49.1450,0,U,41866,999,3535,0,-.88E-6,0
TIANLIAN 1-04,2016-072A,2026-07-12T04:05:06.836064,1.00270708,.0043934,0.9308,82.7595,90.2615,355.1159,0,U,41869,999,3555,0,.32E-6,0
WGS F8 (USA 272),2016-075A,2026-07-11T13:36:18.070848,1.00269538,.00001561,0.0170,39.3443,140.6965,103.3257,0,U,41879,999,3506,0,-.197E-5,0
FENGYUN 4A,2016-077A,2026-07-11T23:24:38.492064,1.00269932,.0008474,2.3817,80.0081,159.1108,165.6912,0,U,41882,999,3517,0,-.356E-5,0
ECHOSTAR 19,2016-079A,2026-07-11T19:56:25.955808,1.00269785,.00011508,0.0154,54.4655,57.0578,20.2076,0,U,41893,999,3495,0,-.134E-5,0
JCSAT-110A (JCSAT-15),2016-082A,2026-07-12T01:50:38.563008,1.00269973,.0000413,0.0186,32.1801,112.3601,283.1588,0,U,41903,999,3500,0,-.348E-5,0
STAR ONE D1,2016-082B,2026-07-12T02:50:47.211072,1.00270556,.0002285,0.0049,0.8129,114.4517,133.4439,0,U,41904,999,3502,0,-.208E-5,0
TJS-2,2017-001A,2026-07-12T04:22:21.654048,1.00269959,.0000816,0.8950,84.9929,111.6261,225.5940,0,U,41911,999,3496,0,-.5E-7,0
SBIRS GEO-4 (USA 273),2017-004A,2026-07-12T03:20:56.071104,1.00282075,.0002539,2.2895,43.8976,67.4227,250.4914,0,U,41937,999,3484,0,.128E-5,0
HISPASAT 36W-1,2017-006A,2026-07-12T01:21:49.369824,1.00270012,.0001025,0.0079,314.6621,156.1426,163.6086,0,U,41942,999,3449,0,-.241E-5,0
TELKOM 3S,2017-007A,2026-07-12T02:05:40.065792,1.00271900,.0001977,0.0153,64.8928,43.8693,330.6389,0,U,41944,999,3438,0,-.36E-5,0
INTELSAT 32E (IS-32E),2017-007B,2026-07-11T20:11:46.984128,1.00270600,.0000463,0.0258,38.9305,266.3977,244.1878,0,U,41945,999,3447,0,0,0
ECHOSTAR 23,2017-014A,2026-07-11T23:18:05.079168,1.00270442,.0002052,0.0176,24.4803,83.5078,61.5017,0,U,42070,999,3417,0,-.53E-6,0
WGS F9 (USA 275),2017-016A,2026-07-11T08:41:38.595264,1.00271496,.00004489,0.0231,14.6017,217.9306,175.1636,0,U,42075,999,3413,0,0,0
SES-10,2017-017A,2026-07-12T01:13:00.314976,1.00271633,.0002558,0.0169,41.5600,78.1794,121.5675,0,U,42432,999,3400,0,-.27E-5,0
CHINASAT 16 (SJ-13),2017-018A,2026-07-12T02:03:32.770080,1.00268546,.0004964,0.0887,89.0320,135.1229,207.2490,0,U,42662,999,3399,0,-.349E-5,0
KOREASAT 7,2017-023A,2026-07-12T01:50:38.563008,1.00272791,.0000942,0.0218,47.2072,98.1084,288.2108,0,U,42691,999,3361,0,-.359E-5,0
SGDC,2017-023B,2026-07-11T09:42:13.109760,1.00271640,.00022058,0.0120,49.5404,69.0252,241.4523,0,U,42692,999,3364,0,-.243E-5,0
GSAT-9,2017-024A,2026-07-12T02:47:21.681024,1.00268833,.0002301,0.0790,91.6008,29.5448,307.9993,0,U,42695,999,3354,0,-.283E-5,0
INMARSAT 5-F4,2017-025A,2026-07-11T20:40:13.276128,1.00266963,.0000818,0.0297,45.9941,161.2298,89.1100,0,U,42698,999,3352,0,0,0
SES-15,2017-026A,2026-07-11T12:56:44.115072,1.00278530,.00008499,0.0255,325.0521,168.0714,221.3537,0,U,42709,999,767,0,.64E-6,0
QZS-2 (MICHIBIKI-2),2017-028A,2026-07-11T11:07:39.425664,1.00277700,.07578552,39.3917,242.7958,269.5568,86.3006,0,U,42738,999,787,0,-.92E-6,0
VIASAT-2,2017-029A,2026-07-12T01:12:07.900416,1.00270706,.0000275,0.0197,305.6418,284.4902,7.9706,0,U,42740,999,3345,0,-.262E-5,0
EUTELSAT 172B,2017-029B,2026-07-12T02:21:08.583264,1.00270598,.0000168,0.0287,132.4129,148.3125,216.5605,0,U,42741,999,3399,0,-.3E-7,0
GSAT-19,2017-031A,2026-07-12T00:02:56.344128,1.00272061,.0006236,0.0307,87.1336,359.8736,251.5208,0,U,42747,999,3339,0,.128E-5,0
ECHOSTAR 21,2017-032A,2026-07-12T03:17:41.380800,1.00272507,.0001973,1.7704,357.2940,108.8890,243.5350,0,U,42749,999,3334,0,.7E-6,0
BULGARIASAT-1,2017-038A,2026-07-12T03:15:19.109376,1.00270581,.0003061,0.0022,359.3850,120.7094,220.6625,0,U,42801,999,3309,0,.14E-6,0
HELLAS-SAT 3,2017-040A,2026-07-12T03:25:48.103968,1.00269666,.0003211,0.0435,41.8593,32.9177,305.7066,0,U,42814,999,3305,0,.155E-5,0
GSAT-17,2017-040B,2026-07-12T03:28:50.636928,1.00271471,.0002229,0.0643,88.4743,168.9817,178.2901,0,U,42815,999,3303,0,-.255E-5,0
INTELSAT 35E (IS-35E),2017-041A,2026-07-12T04:42:59.504256,1.00269978,.0001587,0.0176,40.7308,69.1540,216.4592,0,U,42818,999,3306,0,-.236E-5,0
COSMOS 2520,2017-046A,2026-07-12T01:44:54.658176,1.00269879,.000064,0.0377,106.0978,0.0273,255.0530,0,U,42907,999,3264,0,.14E-5,0
