SHIJIAN-17 (SJ-17)      
1 41838U 16065A   26192.81828925  .00000091  00000+0  00000+0 0  9993
2 41838   5.8126  72.3058 0001834  47.0593 304.1727  0.99864156 35445
GOES 16                 
1 41866U 16071A   26193.13146176 -.00000088  00000+0  00000+0 0  9995
2 41866   0.3957  85.5065 0000521  98.0134  49.1450  1.00270889 35357
TIANLIAN 1-04           
1 41869U 16072A   26193.17021801  .00000032  00000+0  00000+0 0  9998
2 41869   0.9308  82.7595 0043934  90.2615 355.1159  1.00270708 35554
WGS F8 (USA 272)        
1 41879U 16075A   26192.56687582 -.00000197  00000+0  00000+0 0  9991
2 41879   0.0170  39.3443 0000156 140.6965 103.3257  1.00269538 35067
FENGYUN 4A              
1 41882U 16077A   26192.97544551 -.00000356  00000+0  00000+0 0  9997
2 41882   2.3817  80.0081 0008474 159.1108 165.6912  1.00269932 35179
ECHOSTAR 19             
1 41893U 16079A   26192.83085597 -.00000134  00000+0  00000+0 0  9990
2 41893   0.0154  54.4655 0001150  57.0578  20.2076  1.00269785 34951
JCSAT-110A (JCSAT-15)   
1 41903U 16082A   26193.07683522 -.00000348  00000+0  00000+0 0  9992
2 41903   0.0186  32.1801 0000413 112.3601 283.1588  1.00269973 35001
STAR ONE D1             
1 41904U 16082B   26193.11860198 -.00000208  00000+0  00000+0 0  9999
2 41904   0.0049   0.8129 0002285 114.4517 133.4439  1.00270556 35026
TJS-2                   
1 41911U 17001A   26193.18219507 -.00000005  00000+0  00000+0 0  9993
2 41911   0.8950  84.9929 0000816 111.6261 225.5940  1.00269959 34964
SBIRS GEO-4 (USA 273)   
1 41937U 17004A   26193.13953786  .00000128  00000+0  00000+0 0  9998
2 41937   2.2895  43.8976 0002539  67.4227 250.4914  1.00282075 34845
HISPASAT 36W-1          
1 41942U 17006A   26193.05682141 -.00000241  00000+0  00000+0 0  9998
2 41942   0.0079 314.6621 0001025 156.1426 163.6086  1.00270012 34497
TELKOM 3S               
1 41944U 17007A   26193.08726928 -.00000360  00000+0  00000+0 0  9998
2 41944   0.0153  64.8928 0001977  43.8693 330.6389  1.00271900 34387
INTELSAT 32E (IS-32E)   
1 41945U 17007B   26192.84151602  .00000000  00000+0  00000+0 0  9993
2 41945   0.0258  38.9305 0000463 266.3977 244.1878  1.00270600 34479
ECHOSTAR 23             
1 42070U 17014A   26192.97089212 -.00000053  00000+0  00000+0 0  9991
2 42070   0.0176  24.4803 0002052  83.5078  61.5017  1.00270442 34175
WGS F9 (USA 275)        
1 42075U 17016A   26192.36225226  .00000000  00000+0  00000+0 0  9999
2 42075   0.0231  14.6017 0000448 217.9306 175.1636  1.00271496 34139
SES-10                  
1 42432U 17017A   26193.05069809 -.00000270  00000+0  00000+0 0  9997
2 42432   0.0169  41.5600 0002558  78.1794 121.5675  1.00271633 34002
CHINASAT 16 (SJ-13)     
1 42662U 17018A   26193.08579595 -.00000349  00000+0  00000+0 0  9991
2 42662   0.0887  89.0320 0004964 135.1229 207.2490  1.00268546 33993
KOREASAT 7              
1 42691U 17023A   26193.07683522 -.00000359  00000+0  00000+0 0  9995
2 42691   0.0218  47.2072 0000942  98.1084 288.2108  1.00272791 33613
SGDC                    
1 42692U 17023B   26192.40431840 -.00000243  00000+0  00000+0 0  9998
2 42692   0.0120  49.5404 0002205  69.0252 241.4523  1.00271640 33645
GSAT-9                  
1 42695U 17024A   26193.11622316 -.00000283  00000+0  00000+0 0  9995
2 42695   0.0790  91.6008 0002301  29.5448 307.9993  1.00268833 33542
INMARSAT 5-F4           
1 42698U 17025A   26192.86126477  .00000000  00000+0  00000+0 0  9993
2 42698   0.0297  45.9941 0000818 161.2298  89.1100  1.00266963 33522
SES-15                  
1 42709U 17026A   26192.53939948  .00000064  00000+0  00000+0 0  9996
2 42709   0.0255 325.0521 0000849 168.0714 221.3537  1.00278530  7671
QZS-2 (MICHIBIKI-2)     
1 42738U 17028A   26192.46365076 -.00000092  00000+0  00000+0 0  9999
2 42738  39.3917 242.7958 0757855 269.5568  86.3006  1.00277700  7872
VIASAT-2                
1 42740U 17029A   26193.05009144 -.00000262  00000+0  00000+0 0  9999
2 42740   0.0197 305.6418 0000275 284.4902   7.9706  1.00270706 33453
EUTELSAT 172B           
1 42741U 17029B   26193.09801601 -.00000003  00000+0  00000+0 0  9995
2 42741   0.0287 132.4129 0000168 148.3125 216.5605  1.00270598 33999
GSAT-19                 
1 42747U 17031A   26193.00204102  .00000128  00000+0  00000+0 0  9995
2 42747   0.0307  87.1336 0006236 359.8736 251.5208  1.00272061 33392
ECHOSTAR 21             
1 42749U 17032A   26193.13728450  .00000070  00000+0  00000+0 0  9995
2 42749   1.7704 357.2940 0001973 108.8890 243.5350  1.00272507 33340
BULGARIASAT-1           
1 42801U 17038A   26193.13563784  .00000014  00000+0  00000+0 0  9995
2 42801   0.0022 359.3850 0003061 120.7094 220.6625  1.00270581 33099
HELLAS-SAT 3            
1 42814U 17040A   26193.14291787  .00000155  00000+0  00000+0 0  9990
2 42814   0.0435  41.8593 0003211  32.9177 305.7066  1.00269666 33053
GSAT-17                 
1 42815U 17040B   26193.14503052 -.00000255  00000+0  00000+0 0  9994
2 42815   0.0643  88.4743 0002229 168.9817 178.2901  1.00271471 33034
INTELSAT 35E (IS-35E)   
1 42818U 17041A   26193.19652204 -.00000236  00000+0  00000+0 0  9996
2 42818   0.0176  40.7308 0001587  69.1540 216.4592  1.00269978 33060
COSMOS 2520             
1 42907U 17046A   26193.07285484  .00000140  00000+0  00000+0 0  9992
2 42907   0.0377 106.0978 0000640   0.0273 255.0530  1.00269879 32641
